{
  "type": "FeatureCollection",
  "features": [
    {
      "type": "Feature",
      "properties": {
        "OBJECT_NAME": "ANIK G1",
        "OBJECT_ID": "2013-014A",
        "EPOCH": "2025-11-29T16:47:04.837056",
        "MEAN_MOTION": 1.00271905,
        "ECCENTRICITY": 0.0003413,
        "INCLINATION": 0.0397,
        "RA_OF_ASC_NODE": 109.1253,
        "ARG_OF_PERICENTER": 138.2203,
        "MEAN_ANOMALY": 325.9786,
        "EPHEMERIS_TYPE": 0,
        "CLASSIFICATION_TYPE": "U",
        "NORAD_CAT_ID": 39127,
        "ELEMENT_SET_NO": 999,
        "REV_AT_EPOCH": 4625,
        "BSTAR": 0,
        "MEAN_MOTION_DOT": -5.3e-07,
        "MEAN_MOTION_DDOT": 0,
        "norad_id": 39127,
        "name": "ANIK G1",
        "group": "active",
        "longitude_deg": NaN,
        "latitude_deg": NaN,
        "alt_km": NaN,
        "orbit_class": "HEO",
        "timestamp": "2025-11-30T05:40:21.616989+00:00"
      },
      "geometry": {
        "type": "Point",
        "coordinates": [
          NaN,
          NaN
        ]
      }
    },
    {
      "type": "Feature",
      "properties": {
        "OBJECT_NAME": "NEE-01 PEGASO",
        "OBJECT_ID": "2013-018B",
        "EPOCH": "2025-11-29T19:36:23.812992",
        "MEAN_MOTION": 14.92207528,
        "ECCENTRICITY": 0.0014068,
        "INCLINATION": 98.0947,
        "RA_OF_ASC_NODE": 106.9396,
        "ARG_OF_PERICENTER": 100.2221,
        "MEAN_ANOMALY": 260.0585,
        "EPHEMERIS_TYPE": 0,
        "CLASSIFICATION_TYPE": "U",
        "NORAD_CAT_ID": 39151,
        "ELEMENT_SET_NO": 999,
        "REV_AT_EPOCH": 68095,
        "BSTAR": 0.00028733,
        "MEAN_MOTION_DOT": 2.873e-05,
        "MEAN_MOTION_DDOT": 0,
        "norad_id": 39151,
        "name": "NEE-01 PEGASO",
        "group": "active",
        "longitude_deg": NaN,
        "latitude_deg": NaN,
        "alt_km": NaN,
        "orbit_class": "HEO",
        "timestamp": "2025-11-30T05:40:21.617009+00:00"
      },
      "geometry": {
        "type": "Point",
        "coordinates": [
          NaN,
          NaN
        ]
      }
    },
    {
      "type": "Feature",
      "properties": {
        "OBJECT_NAME": "ZHONGXING-11",
        "OBJECT_ID": "2013-020A",
        "EPOCH": "2025-11-29T21:43:05.291904",
        "MEAN_MOTION": 1.00270801,
        "ECCENTRICITY": 0.0002448,
        "INCLINATION": 0.0408,
        "RA_OF_ASC_NODE": 79.7275,
        "ARG_OF_PERICENTER": 180.3257,
        "MEAN_ANOMALY": 232.6929,
        "EPHEMERIS_TYPE": 0,
        "CLASSIFICATION_TYPE": "U",
        "NORAD_CAT_ID": 39157,
        "ELEMENT_SET_NO": 999,
        "REV_AT_EPOCH": 4590,
        "BSTAR": 0,
        "MEAN_MOTION_DOT": -2.69e-06,
        "MEAN_MOTION_DDOT": 0,
        "norad_id": 39157,
        "name": "ZHONGXING-11",
        "group": "active",
        "longitude_deg": NaN,
        "latitude_deg": NaN,
        "alt_km": NaN,
        "orbit_class": "HEO",
        "timestamp": "2025-11-30T05:40:21.617022+00:00"
      },
      "geometry": {
        "type": "Point",
        "coordinates": [
          NaN,
          NaN
        ]
      }
    },
    {
      "type": "Feature",
      "properties": {
        "OBJECT_NAME": "PROBA-V",
        "OBJECT_ID": "2013-021A",
        "EPOCH": "2025-11-29T17:13:43.210272",
        "MEAN_MOTION": 14.23542268,
        "ECCENTRICITY": 0.0004327,
        "INCLINATION": 98.338,
        "RA_OF_ASC_NODE": 317.4265,
        "ARG_OF_PERICENTER": 13.2912,
        "MEAN_ANOMALY": 346.8381,
        "EPHEMERIS_TYPE": 0,
        "CLASSIFICATION_TYPE": "U",
        "NORAD_CAT_ID": 39159,
        "ELEMENT_SET_NO": 999,
        "REV_AT_EPOCH": 65273,
        "BSTAR": 5.9116e-05,
        "MEAN_MOTION_DOT": 9.4e-07,
        "MEAN_MOTION_DDOT": 0,
        "norad_id": 39159,
        "name": "PROBA-V",
        "group": "active",
        "longitude_deg": NaN,
        "latitude_deg": NaN,
        "alt_km": NaN,
        "orbit_class": "HEO",
        "timestamp": "2025-11-30T05:40:21.617029+00:00"
      },
      "geometry": {
        "type": "Point",
        "coordinates": [
          NaN,
          NaN
        ]
      }
    },
    {
      "type": "Feature",
      "properties": {
        "OBJECT_NAME": "WGS F5 (USA 243)",
        "OBJECT_ID": "2013-024A",
        "EPOCH": "2025-11-29T18:45:33.911136",
        "MEAN_MOTION": 1.00268759,
        "ECCENTRICITY": 2.25e-05,
        "INCLINATION": 0.014,
        "RA_OF_ASC_NODE": 329.0279,
        "ARG_OF_PERICENTER": 286.9706,
        "MEAN_ANOMALY": 41.8135,
        "EPHEMERIS_TYPE": 0,
        "CLASSIFICATION_TYPE": "U",
        "NORAD_CAT_ID": 39168,
        "ELEMENT_SET_NO": 999,
        "REV_AT_EPOCH": 4517,
        "BSTAR": 0,
        "MEAN_MOTION_DOT": 0,
        "MEAN_MOTION_DDOT": 0,
        "norad_id": 39168,
        "name": "WGS F5 (USA 243)",
        "group": "active",
        "longitude_deg": NaN,
        "latitude_deg": NaN,
        "alt_km": NaN,
        "orbit_class": "HEO",
        "timestamp": "2025-11-30T05:40:21.617055+00:00"
      },
      "geometry": {
        "type": "Point",
        "coordinates": [
          NaN,
          NaN
        ]
      }
    },
    {
      "type": "Feature",
      "properties": {
        "OBJECT_NAME": "SES-6",
        "OBJECT_ID": "2013-026A",
        "EPOCH": "2025-11-29T18:48:56.088000",
        "MEAN_MOTION": 1.00271333,
        "ECCENTRICITY": 0.000248,
        "INCLINATION": 0.0254,
        "RA_OF_ASC_NODE": 19.0229,
        "ARG_OF_PERICENTER": 235.7891,
        "MEAN_ANOMALY": 55.868,
        "EPHEMERIS_TYPE": 0,
        "CLASSIFICATION_TYPE": "U",
        "NORAD_CAT_ID": 39172,
        "ELEMENT_SET_NO": 999,
        "REV_AT_EPOCH": 4572,
        "BSTAR": 0,
        "MEAN_MOTION_DOT": -2.4e-06,
        "MEAN_MOTION_DDOT": 0,
        "norad_id": 39172,
        "name": "SES-6",
        "group": "active",
        "longitude_deg": NaN,
        "latitude_deg": NaN,
        "alt_km": NaN,
        "orbit_class": "HEO",
        "timestamp": "2025-11-30T05:40:21.617062+00:00"
      },
      "geometry": {
        "type": "Point",
        "coordinates": [
          NaN,
          NaN
        ]
      }
    },
    {
      "type": "Feature",
      "properties": {
        "OBJECT_NAME": "COSMOS 2486",
        "OBJECT_ID": "2013-028A",
        "EPOCH": "2025-11-29T21:00:51.460704",
        "MEAN_MOTION": 14.56063889,
        "ECCENTRICITY": 0.0009584,
        "INCLINATION": 97.9882,
        "RA_OF_ASC_NODE": 304.3628,
        "ARG_OF_PERICENTER": 278.6443,
        "MEAN_ANOMALY": 81.367,
        "EPHEMERIS_TYPE": 0,
        "CLASSIFICATION_TYPE": "U",
        "NORAD_CAT_ID": 39177,
        "ELEMENT_SET_NO": 999,
        "REV_AT_EPOCH": 66237,
        "BSTAR": 6.3529e-05,
        "MEAN_MOTION_DOT": 2.37e-06,
        "MEAN_MOTION_DDOT": 0,
        "norad_id": 39177,
        "name": "COSMOS 2486",
        "group": "active",
        "longitude_deg": NaN,
        "latitude_deg": NaN,
        "alt_km": NaN,
        "orbit_class": "HEO",
        "timestamp": "2025-11-30T05:40:21.617068+00:00"
      },
      "geometry": {
        "type": "Point",
        "coordinates": [
          NaN,
          NaN
        ]
      }
    },
    {
      "type": "Feature",
      "properties": {
        "OBJECT_NAME": "O3B FM5",
        "OBJECT_ID": "2013-031A",
        "EPOCH": "2025-11-29T17:59:09.228768",
        "MEAN_MOTION": 5.00116296,
        "ECCENTRICITY": 0.0003537,
        "INCLINATION": 0.0732,
        "RA_OF_ASC_NODE": 42.5496,
        "ARG_OF_PERICENTER": 206.1486,
        "MEAN_ANOMALY": 111.2701,
        "EPHEMERIS_TYPE": 0,
        "CLASSIFICATION_TYPE": "U",
        "NORAD_CAT_ID": 39188,
        "ELEMENT_SET_NO": 999,
        "REV_AT_EPOCH": 22706,
        "BSTAR": 0,
        "MEAN_MOTION_DOT": -7e-08,
        "MEAN_MOTION_DDOT": 0,
        "norad_id": 39188,
        "name": "O3B FM5",
        "group": "active",
        "longitude_deg": NaN,
        "latitude_deg": NaN,
        "alt_km": NaN,
        "orbit_class": "HEO",
        "timestamp": "2025-11-30T05:40:21.617074+00:00"
      },
      "geometry": {
        "type": "Point",
        "coordinates": [
          NaN,
          NaN
        ]
      }
    }
  ]
}