ANIK G1                 
1 39127U 13014A   25333.69936154 -.00000053  00000+0  00000+0 0  9997
2 39127   0.0397 109.1253 0003413 138.2203 325.9786  1.00271905 46256
NEE-01 PEGASO           
1 39151U 13018B   25333.81694228  .00002873  00000+0  28733-3 0  9993
2 39151  98.0947 106.9396 0014068 100.2221 260.0585 14.92207528680953
ZHONGXING-11            
1 39157U 13020A   25333.90492236 -.00000269  00000+0  00000+0 0  9998
2 39157   0.0408  79.7275 0002448 180.3257 232.6929  1.00270801 45900
PROBA-V                 
1 39159U 13021A   25333.71786123  .00000094  00000+0  59116-4 0  9993
2 39159  98.3380 317.4265 0004327  13.2912 346.8381 14.23542268652735
WGS F5 (USA 243)        
1 39168U 13024A   25333.78164249  .00000000  00000+0  00000+0 0  9992
2 39168   0.0140 329.0279 0000225 286.9706  41.8135  1.00268759 45170
SES-6                   
1 39172U 13026A   25333.78398250 -.00000240  00000+0  00000+0 0  9997
2 39172   0.0254  19.0229 0002480 235.7891  55.8680  1.00271333 45727
COSMOS 2486             
1 39177U 13028A   25333.87559561  .00000237  00000+0  63529-4 0  9993
2 39177  97.9882 304.3628 0009584 278.6443  81.3670 14.56063889662377
O3B FM5                 
1 39188U 13031A   25333.74941237 -.00000007  00000+0  00000+0 0  9996
2 39188   0.0732  42.5496 0003537 206.1486 111.2701  5.00116296227068
